{
    "links": {
        "self": "http://www.neowsapp.com/rest/v1/neo/3457844?api_key=iIulBulltgU6a56xZRHN4H3l9WmuAYTsLGpBGhQ2"
    },
    "id": "3457844",
    "neo_reference_id": "3457844",
    "name": "(2009 HE21)",
    "designation": "2009 HE21",
    "nasa_jpl_url": "http://ssd.jpl.nasa.gov/sbdb.cgi?sstr=3457844",
    "absolute_magnitude_h": 24.5,
    "estimated_diameter": {
        "kilometers": {
            "estimated_diameter_min": 0.0334622374,
            "estimated_diameter_max": 0.0748238376
        },
        "meters": {
            "estimated_diameter_min": 33.4622374455,
            "estimated_diameter_max": 74.8238376074
        },
        "miles": {
            "estimated_diameter_min": 0.0207924639,
            "estimated_diameter_max": 0.0464933628
        },
        "feet": {
            "estimated_diameter_min": 109.7842471007,
            "estimated_diameter_max": 245.4850393757
        }
    },
    "is_potentially_hazardous_asteroid": false,
    "close_approach_data": [
        {
            "close_approach_date": "2009-04-30",
            "close_approach_date_full": "2009-Apr-30 22:43",
            "epoch_date_close_approach": 1241131380000,
            "relative_velocity": {
                "kilometers_per_second": "28.3341896376",
                "kilometers_per_hour": "102003.0826955144",
                "miles_per_hour": "63380.7488004434"
            },
            "miss_distance": {
                "astronomical": "0.0545236033",
                "lunar": "21.2096816837",
                "kilometers": "8156614.918404971",
                "miles": "5068285.4907757598"
            },
            "orbiting_body": "Earth"
        },
        {
            "close_approach_date": "2009-06-03",
            "close_approach_date_full": "2009-Jun-03 16:09",
            "epoch_date_close_approach": 1244045340000,
            "relative_velocity": {
                "kilometers_per_second": "24.8839285576",
                "kilometers_per_hour": "89582.1428072668",
                "miles_per_hour": "55662.8597904375"
            },
            "miss_distance": {
                "astronomical": "0.039006489",
                "lunar": "15.173524221",
                "kilometers": "5835287.67057843",
                "miles": "3625879.624225134"
            },
            "orbiting_body": "Merc"
        }
    ],
    "orbital_data": {
        "orbit_id": "8",
        "orbit_determination_date": "2017-04-06 09:00:45",
        "first_observation_date": "2009-04-20",
        "last_observation_date": "2009-04-23",
        "data_arc_in_days": 3,
        "observations_used": 27,
        "orbit_uncertainty": "9",
        "minimum_orbit_intersection": ".00712101",
        "jupiter_tisserand_invariant": "2.874",
        "epoch_osculation": "2454942.5",
        "eccentricity": ".8547629860346264",
        "semi_major_axis": "2.392715919705656",
        "inclination": "6.464629756872672",
        "ascending_node_longitude": "34.53696998724915",
        "orbital_period": "1351.870638315829",
        "perihelion_distance": ".3475109154454621",
        "perihelion_argument": "298.5104152536695",
        "aphelion_distance": "4.43792092396585",
        "perihelion_time": "2454995.688165286349",
        "mean_anomaly": "345.8361155569293",
        "mean_motion": ".2662976691678805",
        "equinox": "J2000",
        "orbit_class": {
            "orbit_class_type": "APO",
            "orbit_class_description": "Near-Earth asteroid orbits which cross the Earth’s orbit similar to that of 1862 Apollo",
            "orbit_class_range": "a (semi-major axis) > 1.0 AU; q (perihelion) < 1.017 AU"
        }
    },
    "is_sentry_object": false
}